{
  "type": "FeatureCollection",
  "features": [
    {
      "type": "Feature",
      "properties": {
        "norad_id": 66919,
        "name": "HULIANWANG DIGUI-109",
        "group": "last-30-days",
        "lat": -44.795288174127364,
        "lon": 46.49437891642081,
        "alt_km": 875.1822081349283,
        "timestamp": "2025-12-16T05:49:07.986081+00:00",
        "meta_object_name": "HULIANWANG DIGUI-109",
        "meta_object_id": "2025-285E",
        "meta_epoch": "2025-12-15T21:36:02.631744",
        "meta_mean_motion": 14.04996483,
        "meta_eccentricity": 0.00079266,
        "meta_inclination": 50.0066,
        "meta_ra_of_asc_node": 104.3472,
        "meta_arg_of_pericenter": 302.4802,
        "meta_mean_anomaly": 57.5336,
        "meta_ephemeris_type": 0,
        "meta_classification_type": "U",
        "meta_norad_cat_id": 66919,
        "meta_element_set_no": 999,
        "meta_rev_at_epoch": 135,
        "meta_bstar": 0.00011810987,
        "meta_mean_motion_dot": 3.9e-07,
        "meta_mean_motion_ddot": 0,
        "tle_line1": "1 66919U 25285E   25349.90003046  .00000039  00000+0  11811-3 0  9994",
        "tle_line2": "2 66919  50.0066 104.3472 0007926 302.4802  57.5336 14.04996483  1350"
      },
      "geometry": {
        "type": "Point",
        "coordinates": [
          46.49437891642081,
          -44.795288174127364
        ]
      }
    },
    {
      "type": "Feature",
      "properties": {
        "norad_id": 66920,
        "name": "HULIANWANG DIGUI-110",
        "group": "last-30-days",
        "lat": -42.68780963834033,
        "lon": 52.21737831951189,
        "alt_km": 876.3170180008519,
        "timestamp": "2025-12-16T05:49:07.986091+00:00",
        "meta_object_name": "HULIANWANG DIGUI-110",
        "meta_object_id": "2025-285F",
        "meta_epoch": "2025-12-15T23:17:10.870080",
        "meta_mean_motion": 14.05095232,
        "meta_eccentricity": 0.0005654,
        "meta_inclination": 50.0109,
        "meta_ra_of_asc_node": 104.057,
        "meta_arg_of_pericenter": 300.7801,
        "meta_mean_anomaly": 59.2547,
        "meta_ephemeris_type": 0,
        "meta_classification_type": "U",
        "meta_norad_cat_id": 66920,
        "meta_element_set_no": 999,
        "meta_rev_at_epoch": 136,
        "meta_bstar": 0.00010035448,
        "meta_mean_motion_dot": 1.1e-07,
        "meta_mean_motion_ddot": 0,
        "tle_line1": "1 66920U 25285F   25349.97026470  .00000011  00000+0  10035-3 0  9996",
        "tle_line2": "2 66920  50.0109 104.0570 0005654 300.7801  59.2547 14.05095232  1369"
      },
      "geometry": {
        "type": "Point",
        "coordinates": [
          52.21737831951189,
          -42.68780963834033
        ]
      }
    },
    {
      "type": "Feature",
      "properties": {
        "norad_id": 66921,
        "name": "HULIANWANG DIGUI-111",
        "group": "last-30-days",
        "lat": -41.324889205244695,
        "lon": 55.38403030961536,
        "alt_km": 873.6122272646562,
        "timestamp": "2025-12-16T05:49:07.986103+00:00",
        "meta_object_name": "HULIANWANG DIGUI-111",
        "meta_object_id": "2025-285G",
        "meta_epoch": "2025-12-15T23:16:33.165120",
        "meta_mean_motion": 14.05631583,
        "meta_eccentricity": 0.0006789,
        "meta_inclination": 50.0114,
        "meta_ra_of_asc_node": 104.0574,
        "meta_arg_of_pericenter": 306.1977,
        "meta_mean_anomaly": 53.83,
        "meta_ephemeris_type": 0,
        "meta_classification_type": "U",
        "meta_norad_cat_id": 66921,
        "meta_element_set_no": 999,
        "meta_rev_at_epoch": 136,
        "meta_bstar": 2.077565e-06,
        "meta_mean_motion_dot": -1.49e-06,
        "meta_mean_motion_ddot": 0,
        "tle_line1": "1 66921U 25285G   25349.96982830 -.00000149  00000+0  20776-5 0  9995",
        "tle_line2": "2 66921  50.0114 104.0574 0006789 306.1977  53.8300 14.05631583  1366"
      },
      "geometry": {
        "type": "Point",
        "coordinates": [
          55.38403030961536,
          -41.324889205244695
        ]
      }
    },
    {
      "type": "Feature",
      "properties": {
        "norad_id": 66922,
        "name": "HULIANWANG DIGUI-112",
        "group": "last-30-days",
        "lat": -39.07133602861317,
        "lon": 59.97491752528659,
        "alt_km": 873.0191118575549,
        "timestamp": "2025-12-16T05:49:07.986115+00:00",
        "meta_object_name": "HULIANWANG DIGUI-112",
        "meta_object_id": "2025-285H",
        "meta_epoch": "2025-12-15T23:15:24.261984",
        "meta_mean_motion": 14.05774807,
        "meta_eccentricity": 0.00068261,
        "meta_inclination": 50.009,
        "meta_ra_of_asc_node": 104.048,
        "meta_arg_of_pericenter": 313.1524,
        "meta_mean_anomaly": 46.881,
        "meta_ephemeris_type": 0,
        "meta_classification_type": "U",
        "meta_norad_cat_id": 66922,
        "meta_element_set_no": 999,
        "meta_rev_at_epoch": 136,
        "meta_bstar": 8.919271e-06,
        "meta_mean_motion_dot": -1.38e-06,
        "meta_mean_motion_ddot": 0,
        "tle_line1": "1 66922U 25285H   25349.96903081 -.00000138  00000+0  89193-5 0  9993",
        "tle_line2": "2 66922  50.0090 104.0480 0006826 313.1524  46.8810 14.05774807  1369"
      },
      "geometry": {
        "type": "Point",
        "coordinates": [
          59.97491752528659,
          -39.07133602861317
        ]
      }
    },
    {
      "type": "Feature",
      "properties": {
        "norad_id": 66923,
        "name": "HULIANWANG DIGUI-113",
        "group": "last-30-days",
        "lat": -37.41678195076709,
        "lon": 62.975090633939665,
        "alt_km": 872.9007938560653,
        "timestamp": "2025-12-16T05:49:07.986127+00:00",
        "meta_object_name": "HULIANWANG DIGUI-113",
        "meta_object_id": "2025-285J",
        "meta_epoch": "2025-12-15T21:32:19.398336",
        "meta_mean_motion": 14.06057662,
        "meta_eccentricity": 0.00054402,
        "meta_inclination": 50.0087,
        "meta_ra_of_asc_node": 104.337,
        "meta_arg_of_pericenter": 306.8018,
        "meta_mean_anomaly": 53.2388,
        "meta_ephemeris_type": 0,
        "meta_classification_type": "U",
        "meta_norad_cat_id": 66923,
        "meta_element_set_no": 999,
        "meta_rev_at_epoch": 135,
        "meta_bstar": 0.00010517271,
        "meta_mean_motion_dot": 2.1e-07,
        "meta_mean_motion_ddot": 0,
        "tle_line1": "1 66923U 25285J   25349.89744674  .00000021  00000+0  10517-3 0  9999",
        "tle_line2": "2 66923  50.0087 104.3370 0005440 306.8018  53.2388 14.06057662  1350"
      },
      "geometry": {
        "type": "Point",
        "coordinates": [
          62.975090633939665,
          -37.41678195076709
        ]
      }
    },
    {
      "type": "Feature",
      "properties": {
        "norad_id": 66924,
        "name": "CZ-8A R/B",
        "group": "last-30-days",
        "lat": 49.62395074627711,
        "lon": -159.5664572420911,
        "alt_km": 704.3231584839714,
        "timestamp": "2025-12-16T05:49:07.986137+00:00",
        "meta_object_name": "CZ-8A R/B",
        "meta_object_id": "2025-285K",
        "meta_epoch": "2025-12-15T14:17:11.453280",
        "meta_mean_motion": 14.30503022,
        "meta_eccentricity": 0.01193038,
        "meta_inclination": 50.007,
        "meta_ra_of_asc_node": 103.9992,
        "meta_arg_of_pericenter": 116.8076,
        "meta_mean_anomaly": 244.5099,
        "meta_ephemeris_type": 0,
        "meta_classification_type": "U",
        "meta_norad_cat_id": 66924,
        "meta_element_set_no": 999,
        "meta_rev_at_epoch": 133,
        "meta_bstar": 5.5539475e-05,
        "meta_mean_motion_dot": -1e-07,
        "meta_mean_motion_ddot": 0,
        "tle_line1": "1 66924U 25285K   25349.59527145 -.00000010  00000+0  55539-4 0  9992",
        "tle_line2": "2 66924  50.0070 103.9992 0119303 116.8076 244.5099 14.30503022  1330"
      },
      "geometry": {
        "type": "Point",
        "coordinates": [
          -159.5664572420911,
          49.62395074627711
        ]
      }
    },
    {
      "type": "Feature",
      "properties": {
        "norad_id": 66925,
        "name": "STARLINK-35945",
        "group": "last-30-days",
        "lat": 38.149477805845805,
        "lon": 68.98101775263628,
        "alt_km": 300.15379545465294,
        "timestamp": "2025-12-16T05:49:07.986148+00:00",
        "meta_object_name": "STARLINK-35945",
        "meta_object_id": "2025-286A",
        "meta_epoch": "2025-12-15T22:00:01.999584",
        "meta_mean_motion": 15.89739529,
        "meta_eccentricity": 5.202e-05,
        "meta_inclination": 53.1571,
        "meta_ra_of_asc_node": 34.5501,
        "meta_arg_of_pericenter": 94.1201,
        "meta_mean_anomaly": 251.5218,
        "meta_ephemeris_type": 0,
        "meta_classification_type": "U",
        "meta_norad_cat_id": 66925,
        "meta_element_set_no": 999,
        "meta_rev_at_epoch": 250,
        "meta_bstar": -0.0043708061,
        "meta_mean_motion_dot": -0.01162648,
        "meta_mean_motion_ddot": 0,
        "tle_line1": "1 66925U 25286A   25349.91668981 -.01162648  00000+0 -43708-2 0  9995",
        "tle_line2": "2 66925  53.1571  34.5501 0000520  94.1201 251.5218 15.89739529  2503"
      },
      "geometry": {
        "type": "Point",
        "coordinates": [
          68.98101775263628,
          38.149477805845805
        ]
      }
    }
  ]
}